H1 CPF 01  gfz 2022 09 01 00  7441 terrasarx 
H2 0702601  6201 31698    2022 09 01 00 59 42 2022 09 06 00 00 42   120 1 1  0 0 0
H9
10 0 59826   9342.000000  0    3995037.504   5362282.167   1650318.606
10 0 59826   9462.000000  0    4234554.916   5380203.936    760042.532
10 0 59826   9582.000000  0    4399520.490   5300547.643   -143612.862
10 0 59826   9702.000000  0    4485400.827   5126091.245  -1044743.242
10 0 59826   9822.000000  0    4489123.998   4861349.249  -1927505.685
10 0 59826   9942.000000  0    4409159.772   4512461.780  -2776404.582
10 0 59826  10062.000000  0    4245568.310   4087052.455  -3576569.454
10 0 59826  10182.000000  0    4000015.364   3594058.067  -4314018.034
10 0 59826  10302.000000  0    3675756.190   3043535.921  -4975898.387
10 0 59826  10422.000000  0    3277588.619   2446454.003  -5550708.074
10 0 59826  10542.000000  0    2811775.957   1814468.839  -6028486.021
10 0 59826  10662.000000  0    2285942.891   1159695.762  -6400974.490
10 0 59826  10782.000000  0    1708946.545    494477.265  -6661749.445
10 0 59826  10902.000000  0    1090727.156   -168845.966  -6806320.464
10 0 59826  11022.000000  0     442137.722   -818159.744  -6832201.422
10 0 59826  11142.000000  0    -225243.965  -1441792.674  -6738946.809
10 0 59826  11262.000000  0    -899316.202  -2028719.610  -6528158.091
10 0 59826  11382.000000  0   -1567667.546  -2568752.341  -6203460.537
10 0 59826  11502.000000  0   -2217800.174  -3052714.486  -5770447.068
10 0 59826  11622.000000  0   -2837358.732  -3472596.934  -5236592.068
10 0 59826  11742.000000  0   -3414363.766  -3821693.718  -4611134.932
10 0 59826  11862.000000  0   -3937444.760  -4094714.177  -3904930.731
10 0 59826  11982.000000  0   -4396066.850  -4287868.540  -3130271.388
10 0 59826  12102.000000  0   -4780747.819  -4398925.668  -2300678.743
10 0 59826  12222.000000  0   -5083259.484  -4427240.277  -1430671.634
10 0 59826  12342.000000  0   -5296808.345  -4373748.644   -535511.410
10 0 59826  12462.000000  0   -5416190.803  -4240932.599    369069.496
10 0 59826  12582.000000  0   -5437918.533  -4032752.233   1267151.412
10 0 59826  12702.000000  0   -5360309.101  -3754547.508   2142917.440
10 0 59826  12822.000000  0   -5183539.559  -3412911.176   2980941.241
10 0 59826  12942.000000  0   -4909662.260  -3015537.602   3766466.325
10 0 59826  13062.000000  0   -4542582.803  -2571051.033   4485672.084
10 0 59826  13182.000000  0   -4087999.605  -2088817.026   5125919.667
10 0 59826  13302.000000  0   -3553309.226  -1578743.791   5675972.244
10 0 59826  13422.000000  0   -2947480.359  -1051077.892   6126189.569
10 0 59826  13542.000000  0   -2280896.814   -516196.708   6468693.635
10 0 59826  13662.000000  0   -1565172.935     15597.328   6697500.121
10 0 59826  13782.000000  0    -812947.527    534273.938   6808615.438
10 0 59826  13902.000000  0     -37660.102   1030262.610   6800102.037
10 0 59826  14022.000000  0     746688.755   1494628.590   6672110.133
10 0 59826  14142.000000  0    1525789.556   1919233.997   6426875.265
10 0 59826  14262.000000  0    2285284.107   2296880.451   6068681.000
10 0 59826  14382.000000  0    3011029.714   2621431.707   5603789.410
10 0 59826  14502.000000  0    3689365.080   2887915.410   5040338.182
10 0 59826  14622.000000  0    4307370.937   3092601.431   4388203.232
10 0 59826  14742.000000  0    4853120.223   3233055.038   3658831.497
10 0 59826  14862.000000  0    5315917.846   3308164.888   2865043.825
10 0 59826  14982.000000  0    5686517.560   3318141.649   2020807.392
10 0 59826  15102.000000  0    5957312.524   3264490.564   1140987.680
10 0 59826  15222.000000  0    6122496.609   3149957.115    241080.317
10 0 59826  15342.000000  0    6178189.547   2978445.891   -663070.684
10 0 59826  15462.000000  0    6122523.341   2754914.673  -1555560.721
10 0 59826  15582.000000  0    5955687.697   2485248.553  -2420711.551
10 0 59826  15702.000000  0    5679935.181   2176117.550  -3243353.341
10 0 59826  15822.000000  0    5299544.846   1834818.921  -4009094.598
10 0 59826  15942.000000  0    4820746.320   1469109.543  -4704575.014
10 0 59826  16062.000000  0    4251605.224   1087032.933  -5317694.566
10 0 59826  16182.000000  0    3601876.895    696746.270  -5837815.747
10 0 59826  16302.000000  0    2882830.805    306350.122  -6255938.734
10 0 59826  16422.000000  0    2107048.648    -76275.409  -6564845.682
10 0 59826  16542.000000  0    1288202.716   -443625.133  -6759213.824
10 0 59826  16662.000000  0     440816.697   -788711.866  -6835698.986
10 0 59826  16782.000000  0    -419989.011  -1105195.318  -6792985.927
10 0 59826  16902.000000  0   -1278760.129  -1387494.904  -6631807.754
10 0 59826  17022.000000  0   -2119979.524  -1630885.901  -6354935.581
10 0 59826  17142.000000  0   -2928341.608  -1831577.326  -5967135.197
10 0 59826  17262.000000  0   -3689024.895  -1986770.371  -5475093.928
10 0 59826  17382.000000  0   -4387963.137  -2094697.795  -4887317.761
10 0 59826  17502.000000  0   -5012108.562  -2154641.976  -4213995.358
10 0 59826  17622.000000  0   -5549681.194  -2166931.530  -3466832.151
10 0 59826  17742.000000  0   -5990400.508  -2132916.343  -2658855.028
10 0 59826  17862.000000  0   -6325692.580  -2054920.596  -1804189.722
10 0 59826  17982.000000  0   -6548868.045  -1936174.869   -917815.090
10 0 59826  18102.000000  0   -6655265.483  -1780728.515    -15297.756
10 0 59826  18222.000000  0   -6642356.237  -1593344.091    887487.239
10 0 59826  18342.000000  0   -6509806.679  -1379376.057   1774644.211
10 0 59826  18462.000000  0   -6259495.826  -1144637.514   2630546.028
10 0 59826  18582.000000  0   -5895488.122   -895258.274   3440117.905
10 0 59826  18702.000000  0   -5423962.545   -637537.169   4189110.516
10 0 59826  18822.000000  0   -4853097.622   -377793.318   4864355.130
10 0 59826  18942.000000  0   -4192919.666   -122220.275   5453994.423
10 0 59826  19062.000000  0   -3455118.193    123254.399   5947688.952
10 0 59826  19182.000000  0   -2652829.670    353100.470   6336794.700
10 0 59826  19302.000000  0   -1800396.435    562303.959   6614508.377
10 0 59826  19422.000000  0    -913105.433    746471.973   6775980.737
10 0 59826  19542.000000  0      -6911.939    901922.269   6818395.096
10 0 59826  19662.000000  0     901846.863   1025755.132   6741012.768
10 0 59826  19782.000000  0    1796745.189   1115907.329   6545185.227
10 0 59826  19902.000000  0    2661564.523   1171186.776   6234331.972
10 0 59826  20022.000000  0    3480587.700   1191287.222   5813885.337
10 0 59826  20142.000000  0    4238887.341   1176782.958   5291200.430
10 0 59826  20262.000000  0    4922600.977   1129103.726   4675432.483
10 0 59826  20382.000000  0    5519192.156   1050490.267   3977384.092
10 0 59826  20502.000000  0    6017690.845    943931.437   3209318.720
10 0 59826  20622.000000  0    6408904.467    813083.707   2384744.992
10 0 59826  20742.000000  0    6685596.461    662174.446   1518178.255
10 0 59826  20862.000000  0    6842629.318    495892.447    624879.808
10 0 59826  20982.000000  0    6877065.043    319267.049   -279418.808
10 0 59826  21102.000000  0    6788222.522    137539.474  -1178802.142
10 0 59826  21222.000000  0    6577688.044    -43970.053  -2057460.004
10 0 59826  21342.000000  0    6249280.127   -219996.462  -2899972.633
10 0 59826  21462.000000  0    5808970.905   -385461.749  -3691586.086
10 0 59826  21582.000000  0    5264765.553   -535600.938  -4418472.684
10 0 59826  21702.000000  0    4626543.185   -666078.582  -5067970.228
10 0 59826  21822.000000  0    3905865.932   -773093.449  -5628795.993
10 0 59826  21942.000000  0    3115760.290   -853470.540  -6091234.429
10 0 59826  22062.000000  0    2270474.499   -904737.665  -6447294.980
10 0 59826  22182.000000  0    1385218.622   -925184.177  -6690838.266
10 0 59826  22302.000000  0     475892.386   -913903.393  -6817671.619
10 0 59826  22422.000000  0    -441196.634   -870816.467  -6825613.802
10 0 59826  22542.000000  0   -1349618.802   -796677.776  -6714527.815
10 0 59826  22662.000000  0   -2233110.136   -693061.965  -6486323.494
10 0 59826  22782.000000  0   -3075857.070   -562332.520  -6144926.922
10 0 59826  22902.000000  0   -3862773.078   -407592.829  -5696220.436
10 0 59826  23022.000000  0   -4579768.091   -232619.882  -5147952.695
10 0 59826  23142.000000  0   -5214003.059    -41781.666  -4509615.557
10 0 59826  23262.000000  0   -5754126.034    160059.895  -3792291.943
10 0 59826  23382.000000  0   -6190486.242    367660.181  -3008473.040
10 0 59826  23502.000000  0   -6515318.899    575514.039  -2171847.194
10 0 59826  23622.000000  0   -6722896.477    777987.328  -1297063.609
10 0 59826  23742.000000  0   -6809643.388    969453.307   -399474.496
10 0 59826  23862.000000  0   -6774206.833   1144431.277    505141.280
10 0 59826  23982.000000  0   -6617482.708   1297723.776   1400861.961
10 0 59826  24102.000000  0   -6342598.418   1424549.249   2271911.468
10 0 59826  24222.000000  0   -5954850.036   1520666.120   3102946.792
10 0 59826  24342.000000  0   -5461594.917   1582484.789   3879336.622
10 0 59826  24462.000000  0   -4872103.295   1607164.901   4587423.969
10 0 59826  24582.000000  0   -4197374.363   1592695.785   5214767.838
10 0 59826  24702.000000  0   -3449922.066   1537958.261   5750360.429
10 0 59826  24822.000000  0   -2643535.227   1442766.637   6184817.635
10 0 59826  24942.000000  0   -1793015.376   1307890.462   6510539.521
10 0 59826  25062.000000  0    -913898.871   1135054.576   6721836.299
10 0 59826  25182.000000  0     -22171.030    926918.508   6815020.584
10 0 59826  25302.000000  0     866023.957    687035.415   6788467.222
10 0 59826  25422.000000  0    1734674.032    419791.394   6642639.717
10 0 59826  25542.000000  0    2568186.547    130326.020   6380082.911
10 0 59826  25662.000000  0    3351668.177   -175565.184   6005382.691
10 0 59826  25782.000000  0    4071193.487   -491544.830   5525090.681
99
